IRIDIUM 7               
1 24793U 97020B   25085.59878011  .00001321  00000+0  44963-3 0  9997
2 24793  86.4006 211.4731 0002215  87.3255 272.8195 14.35847446460044
IRIDIUM 5               
1 24795U 97020D   25085.52045865  .00010021  00000+0  83979-3 0  9992
2 24795  86.3876 121.8433 0113721  75.5269 285.8545 14.93293649473122
IRIDIUM 4               
1 24796U 97020E   25085.63420069  .00001354  00000+0  45264-3 0  9992
2 24796  86.4006 208.3923 0002237  93.6438 266.5015 14.36756380460613
IRIDIUM 914             
1 24836U 97030A   25085.45072908  .00001778  00000+0  55005-3 0  9997
2 24836  86.3969 217.3157 0003546 110.5773 249.5807 14.40760477595211
IRIDIUM 16              
1 24841U 97030F   25085.49538221  .00001495  00000+0  48241-3 0  9992
2 24841  86.4012 239.9932 0002341  31.3821 328.7516 14.38603393455115
IRIDIUM 911             
1 24842U 97030G   25085.51230551  .00001985  00000+0  53457-3 0  9990
2 24842  86.4436 238.8420 0014754  21.7862 338.3966 14.47489372463120
IRIDIUM 17              
1 24870U 97034B   25085.57067502  .00001371  00000+0  44965-3 0  9998
2 24870  86.3897 269.5063 0000677  47.9029 312.2226 14.37711768451717
IRIDIUM 920             
1 24871U 97034C   25085.54805568  .00001440  00000+0  43817-3 0  9990
2 24871  86.3936 248.9121 0011506   5.2443 354.8875 14.41419030454670
